{"type": "FeatureCollection", "features": [ {"type": "Feature", "properties": {"norad_id": 66559, "name": "STARLINK-35419", "group": "last-30-days", "lat": -10.031786223050169, "lon": 125.06242299831219, "alt_km": 415.4895107202792, "timestamp": "2025-12-10T04:57:28.366302+00:00", "meta": {"OBJECT_NAME": "STARLINK-35419", "OBJECT_ID": "2025-268C", "EPOCH": "2025-12-09T20:00:01.999008", "MEAN_MOTION": 15.50550905, "ECCENTRICITY": 0.0002012, "INCLINATION": 43.0005, "RA_OF_ASC_NODE": 138.189, "ARG_OF_PERICENTER": 275.9898, "MEAN_ANOMALY": 143.4399, "EPHEMERIS_TYPE": 0, "CLASSIFICATION_TYPE": "U", "NORAD_CAT_ID": 66559, "ELEMENT_SET_NO": 999, "REV_AT_EPOCH": 420, "BSTAR": 0.00051102, "MEAN_MOTION_DOT": 0.00029722, "MEAN_MOTION_DDOT": 0}, "tle": {"line1": "1 66559U 25268C   25343.83335647  .00029722  00000+0  51102-3 0  9993", "line2": "2 66559  43.0005 138.1890 0002012 275.9898 143.4399 15.50550905  4202"}}, "geometry": {"type": "Point", "coordinates": [125.06242299831219, -10.031786223050169]}}, {"type": "Feature", "properties": {"norad_id": 66560, "name": "STARLINK-35411", "group": "last-30-days", "lat": -8.738239713479686, "lon": 126.50693057124165, "alt_km": 415.4232103606764, "timestamp": "2025-12-10T04:57:28.366312+00:00", "meta": {"OBJECT_NAME": "STARLINK-35411", "OBJECT_ID": "2025-268D", "EPOCH": "2025-12-09T20:00:01.999008", "MEAN_MOTION": 15.5058849, "ECCENTRICITY": 0.0002054, "INCLINATION": 43.0005, "RA_OF_ASC_NODE": 138.1844, "ARG_OF_PERICENTER": 276.6157, "MEAN_ANOMALY": 144.7296, "EPHEMERIS_TYPE": 0, "CLASSIFICATION_TYPE": "U", "NORAD_CAT_ID": 66560, "ELEMENT_SET_NO": 999, "REV_AT_EPOCH": 420, "BSTAR": -0.00079539, "MEAN_MOTION_DOT": -0.00046744, "MEAN_MOTION_DDOT": 0}, "tle": {"line1": "1 66560U 25268D   25343.83335647 -.00046744  00000+0 -79539-3 0  9994", "line2": "2 66560  43.0005 138.1844 0002054 276.6157 144.7296 15.50588490  4205"}}, "geometry": {"type": "Point", "coordinates": [126.50693057124165, -8.738239713479686]}}, {"type": "Feature", "properties": {"norad_id": 66561, "name": "STARLINK-35305", "group": "last-30-days", "lat": -6.160282856665935, "lon": 129.33979403128578, "alt_km": 415.16353853489636, "timestamp": "2025-12-10T04:57:28.366324+00:00", "meta": {"OBJECT_NAME": "STARLINK-35305", "OBJECT_ID": "2025-268E", "EPOCH": "2025-12-09T20:00:01.999008", "MEAN_MOTION": 15.5054708, "ECCENTRICITY": 0.0001964, "INCLINATION": 43.0006, "RA_OF_ASC_NODE": 138.1745, "ARG_OF_PERICENTER": 276.9645, "MEAN_ANOMALY": 148.2158, "EPHEMERIS_TYPE": 0, "CLASSIFICATION_TYPE": "U", "NORAD_CAT_ID": 66561, "ELEMENT_SET_NO": 999, "REV_AT_EPOCH": 415, "BSTAR": 0.0006229, "MEAN_MOTION_DOT": 0.0003633, "MEAN_MOTION_DDOT": 0}, "tle": {"line1": "1 66561U 25268E   25343.83335647  .00036330  00000+0  62290-3 0  9999", "line2": "2 66561  43.0006 138.1745 0001964 276.9645 148.2158 15.50547080  4151"}}, "geometry": {"type": "Point", "coordinates": [129.33979403128578, -6.160282856665935]}}, {"type": "Feature", "properties": {"norad_id": 66562, "name": "STARLINK-35579", "group": "last-30-days", "lat": -7.447012826983478, "lon": 127.93177229073007, "alt_km": 415.343295891842, "timestamp": "2025-12-10T04:57:28.366335+00:00", "meta": {"OBJECT_NAME": "STARLINK-35579", "OBJECT_ID": "2025-268F", "EPOCH": "2025-12-09T20:00:01.999008", "MEAN_MOTION": 15.50587827, "ECCENTRICITY": 0.0001999, "INCLINATION": 43.0006, "RA_OF_ASC_NODE": 138.1787, "ARG_OF_PERICENTER": 275.9486, "MEAN_ANOMALY": 147.3132, "EPHEMERIS_TYPE": 0, "CLASSIFICATION_TYPE": "U", "NORAD_CAT_ID": 66562, "ELEMENT_SET_NO": 999, "REV_AT_EPOCH": 420, "BSTAR": -0.00074273, "MEAN_MOTION_DOT": -0.00043687, "MEAN_MOTION_DDOT": 0}, "tle": {"line1": "1 66562U 25268F   25343.83335647 -.00043687  00000+0 -74273-3 0  9999", "line2": "2 66562  43.0006 138.1787 0001999 275.9486 147.3132 15.50587827  4209"}}, "geometry": {"type": "Point", "coordinates": [127.93177229073007, -7.447012826983478]}}, {"type": "Feature", "properties": {"norad_id": 66563, "name": "STARLINK-35437", "group": "last-30-days", "lat": -4.8597582035727065, "lon": 130.7508918025231, "alt_km": 415.07827912453286, "timestamp": "2025-12-10T04:57:28.366345+00:00", "meta": {"OBJECT_NAME": "STARLINK-35437", "OBJECT_ID": "2025-268G", "EPOCH": "2025-12-09T20:00:01.999008", "MEAN_MOTION": 15.50552916, "ECCENTRICITY": 0.0001951, "INCLINATION": 43.0005, "RA_OF_ASC_NODE": 138.1693, "ARG_OF_PERICENTER": 277.5546, "MEAN_ANOMALY": 149.5484, "EPHEMERIS_TYPE": 0, "CLASSIFICATION_TYPE": "U", "NORAD_CAT_ID": 66563, "ELEMENT_SET_NO": 999, "REV_AT_EPOCH": 420, "BSTAR": 0.00019986, "MEAN_MOTION_DOT": 0.00011389, "MEAN_MOTION_DDOT": 0}, "tle": {"line1": "1 66563U 25268G   25343.83335647  .00011389  00000+0  19986-3 0  9992", "line2": "2 66563  43.0005 138.1693 0001951 277.5546 149.5484 15.50552916  4203"}}, "geometry": {"type": "Point", "coordinates": [130.7508918025231, -4.8597582035727065]}}, {"type": "Feature", "properties": {"norad_id": 66564, "name": "STARLINK-35358", "group": "last-30-days", "lat": -3.5525085916155783, "lon": 132.16109592403967, "alt_km": 414.9562169457822, "timestamp": "2025-12-10T04:57:28.366355+00:00", "meta": {"OBJECT_NAME": "STARLINK-35358", "OBJECT_ID": "2025-268H", "EPOCH": "2025-12-09T20:00:01.999008", "MEAN_MOTION": 15.50564632, "ECCENTRICITY": 0.0001984, "INCLINATION": 43.0004, "RA_OF_ASC_NODE": 138.1646, "ARG_OF_PERICENTER": 278.1191, "MEAN_ANOMALY": 150.902, "EPHEMERIS_TYPE": 0, "CLASSIFICATION_TYPE": "U", "NORAD_CAT_ID": 66564, "ELEMENT_SET_NO": 999, "REV_AT_EPOCH": 415, "BSTAR": -0.00016698, "MEAN_MOTION_DOT": -0.0001012, "MEAN_MOTION_DDOT": 0}, "tle": {"line1": "1 66564U 25268H   25343.83335647 -.00010120  00000+0 -16698-3 0  9994", "line2": "2 66564  43.0004 138.1646 0001984 278.1191 150.9020 15.50564632  4154"}}, "geometry": {"type": "Point", "coordinates": [132.16109592403967, -3.5525085916155783]}}, {"type": "Feature", "properties": {"norad_id": 66565, "name": "STARLINK-35893", "group": "last-30-days", "lat": -2.247839059043132, "lon": 133.5619082806879, "alt_km": 414.8647589155562, "timestamp": "2025-12-10T04:57:28.366367+00:00", "meta": {"OBJECT_NAME": "STARLINK-35893", "OBJECT_ID": "2025-268J", "EPOCH": "2025-12-09T20:00:01.999008", "MEAN_MOTION": 15.50576507, "ECCENTRICITY": 0.0001995, "INCLINATION": 43.0004, "RA_OF_ASC_NODE": 138.1596, "ARG_OF_PERICENTER": 276.354, "MEAN_ANOMALY": 154.5725, "EPHEMERIS_TYPE": 0, "CLASSIFICATION_TYPE": "U", "NORAD_CAT_ID": 66565, "ELEMENT_SET_NO": 999, "REV_AT_EPOCH": 420, "BSTAR": -0.00034622, "MEAN_MOTION_DOT": -0.00020598, "MEAN_MOTION_DDOT": 0}, "tle": {"line1": "1 66565U 25268J   25343.83335647 -.00020598  00000+0 -34622-3 0  9992", "line2": "2 66565  43.0004 138.1596 0001995 276.3540 154.5725 15.50576507  4201"}}, "geometry": {"type": "Point", "coordinates": [133.5619082806879, -2.247839059043132]}}, {"type": "Feature", "properties": {"norad_id": 66566, "name": "STARLINK-35871", "group": "last-30-days", "lat": -0.9403385293184992, "lon": 134.96211277681005, "alt_km": 414.76869531984994, "timestamp": "2025-12-10T04:57:28.366378+00:00", "meta": {"OBJECT_NAME": "STARLINK-35871", "OBJECT_ID": "2025-268K", "EPOCH": "2025-12-09T20:00:01.999008", "MEAN_MOTION": 15.50583204, "ECCENTRICITY": 0.0001883, "INCLINATION": 43.0004, "RA_OF_ASC_NODE": 138.1549, "ARG_OF_PERICENTER": 275.7019, "MEAN_ANOMALY": 157.1393, "EPHEMERIS_TYPE": 0, "CLASSIFICATION_TYPE": "U", "NORAD_CAT_ID": 66566, "ELEMENT_SET_NO": 999, "REV_AT_EPOCH": 420, "BSTAR": -0.00048112, "MEAN_MOTION_DOT": -0.00028469, "MEAN_MOTION_DDOT": 0}, "tle": {"line1": "1 66566U 25268K   25343.83335647 -.00028469  00000+0 -48112-3 0  9997", "line2": "2 66566  43.0004 138.1549 0001883 275.7019 157.1393 15.50583204  4202"}}, "geometry": {"type": "Point", "coordinates": [134.96211277681005, -0.9403385293184992]}}, {"type": "Feature", "properties": {"norad_id": 66567, "name": "STARLINK-35825", "group": "last-30-days", "lat": 0.36829650326412117, "lon": 136.36171664940957, "alt_km": 414.59459518362837, "timestamp": "2025-12-10T04:57:28.366388+00:00", "meta": {"OBJECT_NAME": "STARLINK-35825", "OBJECT_ID": "2025-268L", "EPOCH": "2025-12-09T20:00:01.999008", "MEAN_MOTION": 15.50558688, "ECCENTRICITY": 0.00019, "INCLINATION": 43.0005, "RA_OF_ASC_NODE": 138.15, "ARG_OF_PERICENTER": 276.4888, "MEAN_ANOMALY": 158.2823, "EPHEMERIS_TYPE": 0, "CLASSIFICATION_TYPE": "U", "NORAD_CAT_ID": 66567, "ELEMENT_SET_NO": 999, "REV_AT_EPOCH": 420, "BSTAR": 0.00027904, "MEAN_MOTION_DOT": 0.0001605, "MEAN_MOTION_DDOT": 0}, "tle": {"line1": "1 66567U 25268L   25343.83335647  .00016050  00000+0  27904-3 0  9995", "line2": "2 66567  43.0005 138.1500 0001900 276.4888 158.2823 15.50558688  4201"}}, "geometry": {"type": "Point", "coordinates": [136.36171664940957, 0.36829650326412117]}}, {"type": "Feature", "properties": {"norad_id": 66568, "name": "STARLINK-35803", "group": "last-30-days", "lat": 1.6759326784727846, "lon": 137.76054180370565, "alt_km": 414.52333585817814, "timestamp": "2025-12-10T04:57:28.366399+00:00", "meta": {"OBJECT_NAME": "STARLINK-35803", "OBJECT_ID": "2025-268M", "EPOCH": "2025-12-09T20:00:01.999008", "MEAN_MOTION": 15.50585166, "ECCENTRICITY": 0.0001821, "INCLINATION": 43.0004, "RA_OF_ASC_NODE": 138.1448, "ARG_OF_PERICENTER": 275.6132, "MEAN_ANOMALY": 161.0663, "EPHEMERIS_TYPE": 0, "CLASSIFICATION_TYPE": "U", "NORAD_CAT_ID": 66568, "ELEMENT_SET_NO": 999, "REV_AT_EPOCH": 420, "BSTAR": -0.00057702, "MEAN_MOTION_DOT": -0.00034054, "MEAN_MOTION_DDOT": 0}, "tle": {"line1": "1 66568U 25268M   25343.83335647 -.00034054  00000+0 -57702-3 0  9991", "line2": "2 66568  43.0004 138.1448 0001821 275.6132 161.0663 15.50585166  4202"}}, "geometry": {"type": "Point", "coordinates": [137.76054180370565, 1.6759326784727846]}}]}